NORAD_CAT_ID,OBJECT_NAME,OBJECT_TYPE,EPOCH,MEAN_MOTION,ECCENTRICITY,INCLINATION,RA_OF_ASC_NODE,ARG_OF_PERICENTER,MEAN_ANOMALY,BSTAR,MEAN_MOTION_DOT,MEAN_MOTION_DDOT,TLE_LINE0,TLE_LINE1,TLE_LINE2,SEMIMAJOR_AXIS,PERIOD,APOGEE,PERIGEE,DECAYED
55946.0,STARLINK-5857,PAYLOAD,2023-09-13 19:55:45,14.9833685,0.0002965,70.0009,53.4079,268.2995,91.7825,6.4744e-05,6.8e-06,0.0,0 STARLINK-5857,1 55946U 23037AJ  23256.83039004  .00000680  00000-0  64744-4 0  9992,2 55946  70.0009  53.4079 0002965 268.2995  91.7825 14.98336850 27994,6950.172,96.107,574.097,569.976,0.0
55946.0,STARLINK-5857,PAYLOAD,2023-09-14 13:33:15,14.98324851,0.0002785,70.0011,51.557,258.7428,101.3418,-4.1764e-05,-5.91e-06,0.0,0 STARLINK-5857,1 55946U 23037AJ  23257.56476052 -.00000591  00000-0 -41764-4 0  9991,2 55946  70.0011  51.5570 0002785 258.7428 101.3418 14.98324851 28105,6950.209,96.107,574.009,570.138,0.0
55946.0,STARLINK-5857,PAYLOAD,2023-09-14 18:21:39,14.98322835,0.000319,70.0005,51.0511,271.8364,88.2429,-7.388e-05,-9.74e-06,0.0,0 STARLINK-5857,1 55946U 23037AJ  23257.76504391 -.00000974  00000-0 -73880-4 0  9990,2 55946  70.0005  51.0511 0003190 271.8364  88.2429 14.98322835 28479,6950.215,96.107,574.297,569.863,0.0
55946.0,STARLINK-5857,PAYLOAD,2023-09-14 19:57:47,14.98322488,0.000315,70.0007,50.8829,271.3168,88.763,-8.557e-05,-1.114e-05,0.0,0 STARLINK-5857,1 55946U 23037AJ  23257.83180467 -.00001114  00000-0 -85570-4 0  9998,2 55946  70.0007  50.8829 0003150 271.3168  88.7630 14.98322488 28140,6950.216,96.107,574.27,569.892,0.0
55946.0,STARLINK-5857,PAYLOAD,2023-09-15 10:23:00,14.98329376,0.0003199,70.0006,49.368,271.5399,88.5393,-4.1113e-05,-5.84e-06,0.0,0 STARLINK-5857,1 55946U 23037AJ  23258.43264009 -.00000584  00000-0 -41113-4 0  9995,2 55946  70.0006  49.3680 0003199 271.5399  88.5393 14.98329376 28572,6950.195,96.107,574.283,569.836,0.0
55946.0,STARLINK-5857,PAYLOAD,2023-09-15 13:35:16,14.98330657,0.000319,70.0007,49.0314,271.5376,88.5417,-2.4314e-05,-3.83e-06,0.0,0 STARLINK-5857,1 55946U 23037AJ  23258.56615880 -.00000383  00000-0 -24314-4 0  9997,2 55946  70.0007  49.0314 0003190 271.5376  88.5417 14.98330657 28256,6950.191,96.107,574.273,569.839,0.0
55946.0,STARLINK-5857,PAYLOAD,2023-09-15 19:59:47,14.98335862,0.0003159,70.0008,48.358,271.7297,88.35,6.9589e-06,-1e-07,0.0,0 STARLINK-5857,1 55946U 23037AJ  23258.83319419 -.00000010  00000-0  69589-5 0  9996,2 55946  70.0008  48.3580 0003159 271.7297  88.3500 14.98335862 28639,6950.175,96.107,574.235,569.844,0.0
55946.0,STARLINK-5857,PAYLOAD,2023-09-16 10:25:00,14.98325425,0.0003202,70.0009,46.843,273.3876,86.6917,8.437e-05,9.14e-06,0.0,0 STARLINK-5857,1 55946U 23037AJ  23259.43403844  .00000914  00000-0  84370-4 0  9995,2 55946  70.0009  46.8430 0003202 273.3876  86.6917 14.98325425 28724,6950.207,96.107,574.297,569.847,0.0
55946.0,STARLINK-5857,PAYLOAD,2023-09-16 13:37:17,14.9832608,0.0003195,70.001,46.5064,273.2422,86.8371,8.8367e-05,9.61e-06,0.0,0 STARLINK-5857,1 55946U 23037AJ  23259.56755821  .00000961  00000-0  88367-4 0  9996,2 55946  70.0010  46.5064 0003195 273.2422  86.8371 14.98326080 28402,6950.205,96.107,574.291,569.849,0.0
55946.0,STARLINK-5857,PAYLOAD,2023-09-17 13:39:17,14.98331474,0.0003084,70.0014,43.9813,273.632,86.4486,-1.9292e-05,-3.23e-06,0.0,0 STARLINK-5857,1 55946U 23037AJ  23260.56895796 -.00000323  00000-0 -19292-4 0  9999,2 55946  70.0014  43.9813 0003084 273.6320  86.4486 14.98331474 28559,6950.188,96.107,574.197,569.91,0.0
55946.0,STARLINK-5857,PAYLOAD,2023-09-18 10:29:02,14.98328674,0.0003016,70.0017,41.7935,272.6289,87.4525,-6.9127e-05,-9.18e-06,0.0,0 STARLINK-5857,1 55946U 23037AJ  23261.43683972 -.00000918  00000-0 -69127-4 0  9999,2 55946  70.0017  41.7935 0003016 272.6289  87.4525 14.98328674 29027,6950.197,96.107,574.158,569.966,0.0
55946.0,STARLINK-5857,PAYLOAD,2023-09-18 13:41:19,14.98328445,0.0003017,70.0017,41.4569,272.5638,87.5176,-6.9971e-05,-9.28e-06,0.0,0 STARLINK-5857,1 55946U 23037AJ  23261.57035992 -.00000928  00000-0 -69971-4 0  9995,2 55946  70.0017  41.4569 0003017 272.5638  87.5176 14.98328445 28708,6950.198,96.107,574.16,569.966,0.0
55946.0,STARLINK-5857,PAYLOAD,2023-09-18 20:05:50,14.98331114,0.0002857,70.002,40.7841,266.8955,93.1877,7.3557e-06,-5e-08,0.0,0 STARLINK-5857,1 55946U 23037AJ  23261.83739576 -.00000005  00000-0  73557-5 0  9994,2 55946  70.0020  40.7841 0002857 266.8955  93.1877 14.98331114 28748,6950.189,96.107,574.04,570.069,0.0
55946.0,STARLINK-5857,PAYLOAD,2023-09-19 10:31:03,14.98333611,0.0002781,70.002,39.2699,258.6992,101.3855,2.7861e-05,2.4e-06,0.0,0 STARLINK-5857,1 55946U 23037AJ  23262.43823178  .00000240  00000-0  27861-4 0  9999,2 55946  70.0020  39.2699 0002781 258.6992 101.3855 14.98333611 29178,6950.182,96.107,573.98,570.114,0.0
55946.0,STARLINK-5857,PAYLOAD,2023-09-20 08:56:56,14.98329734,0.0002193,70.004,36.9169,247.9818,112.1109,-4.5362e-05,-6.34e-06,0.0,0 STARLINK-5857,1 55946U 23037AJ  23263.37287623 -.00000634  00000-0 -45362-4 0  9997,2 55946  70.0040  36.9169 0002193 247.9818 112.1109 14.98329734 29310,6950.194,96.107,573.583,570.535,0.0
55946.0,STARLINK-5857,PAYLOAD,2023-09-20 13:45:21,14.9832142,0.000284,70.0022,36.409,265.5923,94.4911,-7.775e-05,-1.02e-05,0.0,0 STARLINK-5857,1 55946U 23037AJ  23263.57316264 -.00001020  00000-0 -77750-4 0  9999,2 55946  70.0022  36.4090 0002840 265.5923  94.4911 14.98321420 29003,6950.219,96.108,574.058,570.111,0.0
55946.0,STARLINK-5857,PAYLOAD,2023-09-20 18:33:45,14.98321369,0.0003124,70.0015,35.9034,270.268,89.8121,-0.00010201,-1.31e-05,0.0,0 STARLINK-5857,1 55946U 23037AJ  23263.77344433 -.00001310  00000-0 -10201-3 0  9999,2 55946  70.0015  35.9034 0003124 270.2680  89.8121 14.98321369 29379,6950.22,96.108,574.256,569.913,0.0
55946.0,STARLINK-5857,PAYLOAD,2023-09-21 10:35:05,14.98333703,0.0003364,70.0011,34.2189,273.8398,86.2376,-2.0078e-05,-3.33e-06,0.0,0 STARLINK-5857,1 55946U 23037AJ  23264.44103560 -.00000333  00000-0 -20078-4 0  9996,2 55946  70.0011  34.2189 0003364 273.8398  86.2376 14.98333703 29478,6950.181,96.107,574.384,569.708,0.0
55946.0,STARLINK-5857,PAYLOAD,2023-09-21 13:47:21,14.98336845,0.0003151,70.0014,33.8823,272.6278,87.452,3.389e-06,-5.3e-07,0.0,0 STARLINK-5857,1 55946U 23037AJ  23264.57455281 -.00000053  00000-0  33890-5 0  9995,2 55946  70.0014  33.8823 0003151 272.6278  87.4520 14.98336845 29158,6950.172,96.107,574.227,569.847,0.0
55946.0,STARLINK-5857,PAYLOAD,2023-09-21 18:35:45,14.98340704,0.0003263,70.0014,33.3774,273.4438,86.6347,6.8619e-05,7.26e-06,0.0,0 STARLINK-5857,1 55946U 23037AJ  23264.77482768  .00000726  00000-0  68619-4 0  9999,2 55946  70.0014  33.3774 0003263 273.4438  86.6347 14.98340704 29527,6950.16,96.106,574.293,569.757,0.0
55946.0,STARLINK-5857,PAYLOAD,2023-09-22 10:37:06,14.9832396,0.0003094,70.0012,31.6926,269.6259,90.4545,0.00012124,1.354e-05,0.0,0 STARLINK-5857,1 55946U 23037AJ  23265.44243551  .00001354  00000-0  12124-3 0  9996,2 55946  70.0012  31.6926 0003094 269.6259  90.4545 14.98323960 29624,6950.212,96.107,574.227,569.926,0.0
55946.0,STARLINK-5857,PAYLOAD,2023-09-22 13:49:22,14.98327628,0.0003232,70.0012,31.3566,270.092,89.9869,0.00011683,1.301e-05,0.0,0 STARLINK-5857,1 55946U 23037AJ  23265.57595353  .00001301  00000-0  11683-3 0  9991,2 55946  70.0012  31.3566 0003232 270.0920  89.9869 14.98327628 29308,6950.2,96.107,574.312,569.819,0.0
55946.0,STARLINK-5857,PAYLOAD,2023-09-22 18:37:46,14.9833216,0.0003234,70.0013,30.8519,270.6447,89.4341,0.00015628,1.772e-05,0.0,0 STARLINK-5857,1 55946U 23037AJ  23265.77622966  .00001772  00000-0  15628-3 0  9999,2 55946  70.0013  30.8519 0003234 270.6447  89.4341 14.98332160 29333,6950.186,96.107,574.299,569.804,0.0
55946.0,STARLINK-5857,PAYLOAD,2023-09-23 12:15:15,14.98332895,0.0003045,70.0015,29.0002,270.9985,89.0826,-8.0664e-05,-1.055e-05,0.0,0 STARLINK-5857,1 55946U 23037AJ  23266.51059528 -.00001055  00000-0 -80664-4 0  9999,2 55946  70.0015  29.0002 0003045 270.9985  89.0826 14.98332895 29780,6950.184,96.107,574.165,569.933,0.0
55946.0,STARLINK-5857,PAYLOAD,2023-09-23 13:51:23,14.9833294,0.000295,70.0024,28.8335,267.4037,92.6784,-4.6773e-05,-6.51e-06,0.0,0 STARLINK-5857,1 55946U 23037AJ  23266.57735383 -.00000651  00000-0 -46773-4 0  9999,2 55946  70.0024  28.8335 0002950 267.4037  92.6784 14.98332940 29457,6950.184,96.107,574.099,569.998,0.0
55946.0,STARLINK-5857,PAYLOAD,2023-09-24 12:17:16,14.98318345,0.0003442,70.0028,26.4781,268.0493,92.0272,9.7369e-05,1.069e-05,0.0,0 STARLINK-5857,1 55946U 23037AJ  23267.51199677  .00001069  00000-0  97369-4 0  9993,2 55946  70.0028  26.4781 0003442 268.0493  92.0272 14.98318345 29594,6950.229,96.108,574.486,569.702,0.0
55946.0,STARLINK-5857,PAYLOAD,2023-09-24 17:05:40,14.98334962,0.000292,70.0029,25.9733,255.4781,104.6055,-0.00011294,-1.44e-05,0.0,0 STARLINK-5857,1 55946U 23037AJ  23267.71227245 -.00001440  00000-0 -11294-3 0  9995,2 55946  70.0029  25.9733 0002920 255.4781 104.6055 14.98334962 29969,6950.178,96.107,574.072,570.013,0.0
55946.0,STARLINK-5857,PAYLOAD,2023-09-25 13:55:25,14.98330526,0.0003,70.002,23.7836,265.7736,94.308,9.1505e-06,1.6e-07,0.0,0 STARLINK-5857,1 55946U 23037AJ  23268.58015270  .00000016  00000-0  91505-5 0  9995,2 55946  70.0020  23.7836 0003000 265.7736  94.3080 14.98330526 29756,6950.191,96.107,574.141,569.971,0.0
55946.0,STARLINK-5857,PAYLOAD,2023-09-25 17:07:41,14.98332932,0.0002911,70.0024,23.4475,265.5733,94.5093,5.6461e-05,5.81e-06,0.0,0 STARLINK-5857,1 55946U 23037AJ  23268.71366986  .00000581  00000-0  56461-4 0  9991,2 55946  70.0024  23.4475 0002911 265.5733  94.5093 14.98332932 30112,6950.184,96.107,574.072,570.026,0.0
55946.0,STARLINK-5857,PAYLOAD,2023-09-26 10:45:10,14.9832018,0.0002662,70.0024,21.5948,255.1241,104.9623,-3.9694e-05,-5.66e-06,0.0,0 STARLINK-5857,1 55946U 23037AJ  23269.44804163 -.00000566  00000-0 -39694-4 0  9990,2 55946  70.0024  21.5948 0002662 255.1241 104.9623 14.98320180 30227,6950.223,96.108,573.938,570.238,0.0
